GSAT0201 (GALILEO 5)    
1 40128U 14050A   23273.21471142 -.00000072  00000+0  00000+0 0  9992
2 40128  49.9121 313.5312 1607969 141.3578 231.3338  1.85519218 59937
GSAT0202 (GALILEO 6)    
1 40129U 14050B   23274.01299449 -.00000076  00000+0  00000+0 0  9994
2 40129  49.9304 312.5713 1605891 142.1989 230.2563  1.85519939 62114
IRNSS-1C                
1 40269U 14061A   23274.58796035 -.00000170  00000+0  00000+0 0  9991
2 40269   4.0275 111.8777 0020033   5.5308 187.3232  1.00273177 32764
NAVSTAR 72 (USA 258)    
1 40294U 14068A   23273.74576667 -.00000029  00000+0  00000+0 0  9993
2 40294  56.2012  69.4252 0049135  62.5856 297.9181  2.00573351 65340
COSMOS 2501             
1 40315U 14075A   23274.16346322  .00000016  00000+0  00000+0 0  9990
2 40315  63.6377 224.7249 0019561 210.3500 149.5145  2.13101235 68753
NAVSTAR 73 (USA 260)    
1 40534U 15013A   23274.38247409  .00000001  00000+0  00000+0 0  9990
2 40534  53.4528 245.1691 0081711  25.7359 334.6352  2.00553007 61973
GSAT0203 (GALILEO 7)    
1 40544U 15017A   23272.29929207 -.00000102  00000+0  00000+0 0  9999
2 40544  56.9059   8.5936 0003937 234.5687 125.4158  1.70476049 52956
GSAT0204 (GALILEO 8)    
1 40545U 15017B   23269.03348640 -.00000092  00000+0  00000+0 0  9992
2 40545  56.9128   8.6972 0004055 217.4748 142.5152  1.70475528 15285
IRNSS-1D                
1 40547U 15018A   23274.37872244 -.00000300  00000+0  00000+0 0  9992
2 40547  28.0201 257.1786 0019156 187.8554 172.9096  1.00275716 31064
BEIDOU-3S IGSO-1S       
1 40549U 15019A   23274.53778227 -.00000147  00000+0  00000+0 0  9998
2 40549  51.0501 307.2504 0041008 197.2371 150.7304  1.00250647 31144
NAVSTAR 74 (USA 262)    
1 40730U 15033A   23274.54432566 -.00000053  00000+0  00000+0 0  9996
2 40730  54.8230 307.6257 0086189  13.9563 346.3317  2.00553739 60149
BEIDOU-3S M2S           
1 40748U 15037A   23274.18003266 -.00000093  00000+0  00000+0 0  9994
2 40748  55.6462 335.8584 0012235 244.7722 115.1639  1.86232954 55680
BEIDOU-3S M1S           
1 40749U 15037B   23272.83932283 -.00000085  00000+0  00000+0 0  9996
2 40749  55.6500 335.8901 0004238 295.5555  64.4657  1.86232777 55666
GSAT0205 (GALILEO 9)    
1 40889U 15045A   23273.49409169  .00000001  00000+0  00000+0 0  9992
2 40889  55.3518 248.9735 0003911   2.6393 357.3194  1.70473067 50128
GSAT0206 (GALILEO 10)   
1 40890U 15045B   23273.71477162  .00000001  00000+0  00000+0 0  9997
2 40890  55.3499 248.9629 0002573 334.9026  25.0416  1.70473101 50155
BEIDOU-3S IGSO-2S       
1 40938U 15053A   23274.44764434 -.00000139  00000+0  00000+0 0  9994
2 40938  50.7686 270.4278 0047841 194.5896 162.6254  1.00276788 29426
NAVSTAR 75 (USA 265)    
1 41019U 15062A   23273.59884747 -.00000029  00000+0  00000+0 0  9998
2 41019  56.1844  69.2815 0090296 221.1797 138.1426  2.00562157 57961
GSAT-15                 
1 41028U 15065A   23274.59004889 -.00000268  00000+0  00000+0 0  9998
2 41028   0.0138 138.1938 0002252  46.2838 131.4900  1.00270749 28877
GSAT0209 (GALILEO 12)   
1 41174U 15079A   23273.88650182  .00000032  00000+0  00000+0 0  9997
2 41174  55.3103 128.4696 0002347 340.3594  19.7345  1.70474037 47896
GSAT0208 (GALILEO 11)   
1 41175U 15079B   23272.93298236  .00000038  00000+0  00000+0 0  9997
2 41175  55.3080 128.4938 0001897   0.3827 359.7251  1.70473963 48296
IRNSS-1E                
1 41241U 16003A   23274.48823211 -.00000291  00000+0  00000+0 0  9990
2 41241  31.0395  77.3843 0020858 179.4255  40.6881  1.00279039 28157
NAVSTAR 76 (USA 266)    
1 41328U 16007A   23274.18766226  .00000031  00000+0  00000+0 0  9990
2 41328  55.0260 128.7832 0071793 233.6299 125.7966  2.00574358 55987
COSMOS 2514             
1 41330U 16008A   23274.61418815 -.00000077  00000+0  00000+0 0  9991
2 41330  65.4947 346.7543 0012301 212.1028 147.8834  2.13102512 59537
IRNSS-1F                
1 41384U 16015A   23274.57795275  .00000152  00000+0  00000+0 0  9994
2 41384   2.9882 128.5288 0019270 176.8078 305.3224  1.00281691 27748
BEIDOU-2 IGSO-6         
1 41434U 16021A   23274.34151480 -.00000169  00000+0  00000+0 0  9995
2 41434  58.7951  47.9908 0048069 218.4943 323.0828  1.00277348 27555
IRNSS-1G                
1 41469U 16027A   23274.56150494 -.00000342  00000+0  00000+0 0  9990
2 41469   2.8773 130.1360 0001541 352.8768 218.6706  1.00276810 27258
GSAT0211 (GALILEO 14)   
1 41549U 16030A   23273.64045690  .00000001  00000+0  00000+0 0  9993
2 41549  55.4972 248.9481 0004076 317.5947  42.3305  1.70473179 45786
GSAT0210 (GALILEO 13)   
1 41550U 16030B   23273.34536510  .00000001  00000+0  00000+0 0  9998
2 41550  55.4969 248.9573 0003981 281.4913  78.4208  1.70473383 45770
COSMOS 2516             
1 41554U 16032A   23270.03562920  .00000006  00000+0  00000+0 0  9996
2 41554  63.8647 225.2757 0015319 214.1184 145.7595  2.13106309 57042
BEIDOU-2 G7             
1 41586U 16037A   23274.54632937 -.00000363  00000+0  00000+0 0  9999
2 41586   1.9350  68.7880 0006901 340.7319 267.7553  1.00271749 26862
EUTELSAT 117 WEST B     
1 41589U 16038B   23274.37238052 -.00000022  00000+0  00000+0 0  9996
2 41589   0.0199  48.3475 0000082 128.5402 210.0246  1.00271565 26731
GSAT0207 (GALILEO 15)   
1 41859U 16069A   23272.42058823  .00000040  00000+0  00000+0 0  9999
2 41859  54.9727 128.5756 0002194 313.0721  47.0187  1.70473994 42490
GSAT0212 (GALILEO 16)   
1 41860U 16069B   23274.03495529  .00000030  00000+0  00000+0 0  9997
2 41860  54.9710 128.5275 0001964  17.3839 342.7249  1.70474220 42776
GSAT0213 (GALILEO 17)   
1 41861U 16069C   23273.22805995  .00000035  00000+0  00000+0 0  9995
2 41861  54.9729 128.5559 0002058 270.1194  89.9633  1.70472885 42750
GSAT0214 (GALILEO 18)   
1 41862U 16069D   23273.96190468  .00000030  00000+0  00000+0 0  9994
2 41862  54.9714 128.5295 0001101 274.6493  85.4406  1.70472793 42769
SES-15                  
1 42709U 17026A   23274.54575439  .00000049  00000+0  00000+0 0  9999
2 42709   0.0417  28.9462 0000548 154.4844 253.9268  1.00270768 24219
QZS-2 (MICHIBIKI-2)     
1 42738U 17028A   23273.83155630 -.00000197  00000+0  00000+0 0  9996
2 42738  41.0030 257.4890 0748390 270.4441 280.7582  1.00257895 23219
QZS-3 (MICHIBIKI-3)     
1 42917U 17048A   23274.55967583 -.00000359  00000+0  00000+0 0  9995
2 42917   0.0697 145.5617 0001981  63.1289 129.8555  1.00268998 22332
COSMOS 2522             
1 42939U 17055A   23273.51725969  .00000011  00000+0  00000+0 0  9996
2 42939  64.0985 225.6884 0009006 243.0246 116.8579  2.13101940 46864
QZS-4 (MICHIBIKI-4)     
1 42965U 17062A   23274.55465925 -.00000346  00000+0  00000+0 0  9993
2 42965  40.6246 356.0996 0749717 269.7843  83.4321  1.00272953 21892
BEIDOU-3 M1             
1 43001U 17069A   23273.99060630  .00000011  00000+0  00000+0 0  9991
2 43001  55.8633  95.9353 0007200 298.6857  61.2888  1.86231469 40162
BEIDOU-3 M2             
1 43002U 17069B   23273.39044282  .00000019  00000+0  00000+0 0  9999
2 43002  55.8620  95.9920 0005551 334.0579  25.9654  1.86231030 40142
GSAT0215 (GALILEO 19)   
1 43055U 17079A   23273.86372435  .00000002  00000+0  00000+0 0  9996
2 43055  55.4736 248.7674 0003465 276.2296  83.6876  1.70473849 36100
GSAT0216 (GALILEO 20)   
1 43056U 17079B   23270.63613681  .00000012  00000+0  00000+0 0  9991
2 43056  55.4757 248.8562 0005092 279.6536  80.2578  1.70473970 36065
GSAT0217 (GALILEO 21)   
1 43057U 17079C   23273.78940212  .00000002  00000+0  00000+0 0  9993
2 43057  55.4720 248.7684 0004521 291.7162  68.1922  1.70473973 36102
GSAT0218 (GALILEO 22)   
1 43058U 17079D   23272.24970466  .00000002  00000+0  00000+0 0  9998
2 43058  55.4729 248.8084 0005535 275.9809  83.9152  1.70473936 36070
BEIDOU-3 M7             
1 43107U 18003A   23273.67813046 -.00000092  00000+0  00000+0 0  9999
2 43107  55.1028 336.5804 0002925  75.2839 284.8113  1.86232317 38909
BEIDOU-3 M8             
1 43108U 18003B   23273.61644915 -.00000092  00000+0  00000+0 0  9991
2 43108  55.0959 336.5694 0004525 247.9174 112.0975  1.86230815 38917
BEIDOU-3 M4             
1 43207U 18018A   23274.05862438  .00000011  00000+0  00000+0 0  9998
2 43207  55.8224  96.0311 0004332  19.9051 340.1586  1.86231405 38302
BEIDOU-3 M3             
1 43208U 18018B   23274.12528531  .00000010  00000+0  00000+0 0  9999
2 43208  55.8216  96.0334 0005114 317.3577  42.6489  1.86231353 38304
BEIDOU-3 M9             
1 43245U 18029A   23273.81109188 -.00000090  00000+0  00000+0 0  9999
2 43245  54.9960 334.3069 0001829 233.8289 126.2178  1.86232455 37458
BEIDOU-3 M10            
1 43246U 18029B   23273.74107955 -.00000090  00000+0  00000+0 0  9992
2 43246  54.9933 334.3383 0002898 344.5704  15.4845  1.86232816 37436
IRNSS-1I                
1 43286U 18035A   23268.08799584  .00000095  00000+0  00000+0 0  9993
2 43286  29.2971  89.8607 0020154 176.9888 183.7212  1.00277929 20094
COSMOS 2527             
1 43508U 18053A   23274.41453989  .00000036  00000+0  00000+0 0  9995
2 43508  65.1025 107.0412 0007476 214.1276 145.8856  2.13102393 41188
BEIDOU-2 IGSO-7         
1 43539U 18057A   23274.44682390 -.00000130  00000+0  00000+0 0  9992
2 43539  55.1184 171.6219 0064063 230.4910 242.5315  1.00275186 19221
GSAT0221 (GALILEO 25)   
1 43564U 18060A   23273.32270937 -.00000104  00000+0  00000+0 0  9991
2 43564  57.2877   8.5008 0003568 254.1728 105.8116  1.70476119 32274
GSAT0222 (GALILEO 26)   
1 43565U 18060B   23273.54083195 -.00000105  00000+0  00000+0 0  9995
2 43565  57.2914   8.4960 0004050 220.8731 139.1207  1.70475814 32322
GSAT0219 (GALILEO 23)   
1 43566U 18060C   23273.76312742 -.00000105  00000+0  00000+0 0  9993
2 43566  57.2906   8.4922 0002806 257.5440 102.4492  1.70476032 32303
GSAT0220 (GALILEO 24)   
1 43567U 18060D   23269.87746299 -.00000095  00000+0  00000+0 0  9997
2 43567  57.2899   8.5973 0002788 251.4482 108.5396  1.70475634 32228
BEIDOU-3 M5             
1 43581U 18062A   23273.96126744  .00000005  00000+0  00000+0 0  9997
2 43581  54.1722 216.0048 0004441 287.6783  72.2497  1.86231779 35192
